[{"OBJECT_NAME":"SL-8 R/B","OBJECT_ID":"1991-006B","EPOCH":"2026-04-29T13:20:08.710368","MEAN_MOTION":13.77505651,"ECCENTRICITY":0.00210057,"INCLINATION":82.9396,"RA_OF_ASC_NODE":132.2163,"ARG_OF_PERICENTER":251.5341,"MEAN_ANOMALY":235.1422,"EPHEMERIS_TYPE":0,"CLASSIFICATION_TYPE":"U","NORAD_CAT_ID":21088,"ELEMENT_SET_NO":999,"REV_AT_EPOCH":77107,"BSTAR":0.00018063969,"MEAN_MOTION_DOT":1.95e-6,"MEAN_MOTION_DDOT":0},{"OBJECT_NAME":"OKEAN-3","OBJECT_ID":"1991-039A","EPOCH":"2026-04-29T14:38:00.335904","MEAN_MOTION":15.05081605,"ECCENTRICITY":0.0014602,"INCLINATION":82.5135,"RA_OF_ASC_NODE":287.4842,"ARG_OF_PERICENTER":152.4606,"MEAN_ANOMALY":207.7398,"EPHEMERIS_TYPE":0,"CLASSIFICATION_TYPE":"U","NORAD_CAT_ID":21397,"ELEMENT_SET_NO":999,"REV_AT_EPOCH":87269,"BSTAR":0.00028032,"MEAN_MOTION_DOT":4.021e-5,"MEAN_MOTION_DDOT":0},{"OBJECT_NAME":"COSMOS 2151","OBJECT_ID":"1991-042A","EPOCH":"2026-04-29T20:11:33.715680","MEAN_MOTION":15.00307988,"ECCENTRICITY":0.0010724,"INCLINATION":82.499,"RA_OF_ASC_NODE":34.3279,"ARG_OF_PERICENTER":243.9814,"MEAN_ANOMALY":116.0306,"EPHEMERIS_TYPE":0,"CLASSIFICATION_TYPE":"U","NORAD_CAT_ID":21422,"ELEMENT_SET_NO":999,"REV_AT_EPOCH":87086,"BSTAR":0.00015279,"MEAN_MOTION_DOT":1.943e-5,"MEAN_MOTION_DDOT":0},{"OBJECT_NAME":"SL-14 R/B","OBJECT_ID":"1991-042B","EPOCH":"2026-04-29T14:29:32.791200","MEAN_MOTION":14.81872566,"ECCENTRICITY":0.0018529,"INCLINATION":82.494,"RA_OF_ASC_NODE":172.4548,"ARG_OF_PERICENTER":75.5107,"MEAN_ANOMALY":284.8161,"EPHEMERIS_TYPE":0,"CLASSIFICATION_TYPE":"U","NORAD_CAT_ID":21423,"ELEMENT_SET_NO":999,"REV_AT_EPOCH":86061,"BSTAR":4.238e-5,"MEAN_MOTION_DOT":3.6e-6,"MEAN_MOTION_DDOT":0},{"OBJECT_NAME":"ERS-1","OBJECT_ID":"1991-050A","EPOCH":"2026-04-29T15:33:20.120256","MEAN_MOTION":14.39486032,"ECCENTRICITY":0.0032851,"INCLINATION":98.783,"RA_OF_ASC_NODE":139.1546,"ARG_OF_PERICENTER":52.5922,"MEAN_ANOMALY":307.8247,"EPHEMERIS_TYPE":0,"CLASSIFICATION_TYPE":"U","NORAD_CAT_ID":21574,"ELEMENT_SET_NO":999,"REV_AT_EPOCH":82306,"BSTAR":0.00012298,"MEAN_MOTION_DOT":3.39e-6,"MEAN_MOTION_DDOT":0},{"OBJECT_NAME":"ARIANE 40 R/B","OBJECT_ID":"1991-050F","EPOCH":"2026-04-29T20:31:44.020704","MEAN_MOTION":14.42927745,"ECCENTRICITY":0.0001764,"INCLINATION":98.1915,"RA_OF_ASC_NODE":170.1456,"ARG_OF_PERICENTER":281.8766,"MEAN_ANOMALY":78.2227,"EPHEMERIS_TYPE":0,"CLASSIFICATION_TYPE":"U","NORAD_CAT_ID":21610,"ELEMENT_SET_NO":999,"REV_AT_EPOCH":82637,"BSTAR":0.00010262,"MEAN_MOTION_DOT":3.01e-6,"MEAN_MOTION_DDOT":0},{"OBJECT_NAME":"INTERCOSMOS 25","OBJECT_ID":"1991-086A","EPOCH":"2026-04-29T14:00:50.765760","MEAN_MOTION":12.1213515,"ECCENTRICITY":0.1485655,"INCLINATION":82.5996,"RA_OF_ASC_NODE":279.2236,"ARG_OF_PERICENTER":7.2401,"MEAN_ANOMALY":354.7735,"EPHEMERIS_TYPE":0,"CLASSIFICATION_TYPE":"U","NORAD_CAT_ID":21819,"ELEMENT_SET_NO":999,"REV_AT_EPOCH":50285,"BSTAR":0.00018032,"MEAN_MOTION_DOT":9.34e-6,"MEAN_MOTION_DDOT":0},{"OBJECT_NAME":"SL-8 R/B","OBJECT_ID":"1992-008B","EPOCH":"2026-04-29T18:41:52.233792","MEAN_MOTION":13.75971075,"ECCENTRICITY":0.0034315,"INCLINATION":82.9283,"RA_OF_ASC_NODE":229.7745,"ARG_OF_PERICENTER":354.2673,"MEAN_ANOMALY":116.0123,"EPHEMERIS_TYPE":0,"CLASSIFICATION_TYPE":"U","NORAD_CAT_ID":21876,"ELEMENT_SET_NO":999,"REV_AT_EPOCH":71644,"BSTAR":4.1611e-5,"MEAN_MOTION_DOT":5.6e-7,"MEAN_MOTION_DDOT":0},{"OBJECT_NAME":"SL-8 R/B","OBJECT_ID":"1992-020B","EPOCH":"2026-04-29T15:00:31.459104","MEAN_MOTION":13.755481,"ECCENTRICITY":0.0029628,"INCLINATION":82.9269,"RA_OF_ASC_NODE":115.9297,"ARG_OF_PERICENTER":153.0866,"MEAN_ANOMALY":345.7214,"EPHEMERIS_TYPE":0,"CLASSIFICATION_TYPE":"U","NORAD_CAT_ID":21938,"ELEMENT_SET_NO":999,"REV_AT_EPOCH":70813,"BSTAR":-5.1518e-5,"MEAN_MOTION_DOT":-3.4e-7,"MEAN_MOTION_DDOT":0},{"OBJECT_NAME":"USA 81","OBJECT_ID":"1992-023A","EPOCH":"2026-04-29T20:44:28.635648","MEAN_MOTION":14.32383944,"ECCENTRICITY":0.0001452,"INCLINATION":85.0039,"RA_OF_ASC_NODE":101.8979,"ARG_OF_PERICENTER":107.8517,"MEAN_ANOMALY":252.2834,"EPHEMERIS_TYPE":0,"CLASSIFICATION_TYPE":"U","NORAD_CAT_ID":21949,"ELEMENT_SET_NO":999,"REV_AT_EPOCH":10211,"BSTAR":6.6806e-5,"MEAN_MOTION_DOT":2.0e-6,"MEAN_MOTION_DDOT":0},{"OBJECT_NAME":"COSMOS 2219","OBJECT_ID":"1992-076A","EPOCH":"2026-04-29T17:38:55.821984","MEAN_MOTION":14.14099054,"ECCENTRICITY":0.0016575,"INCLINATION":71.0602,"RA_OF_ASC_NODE":271.357,"ARG_OF_PERICENTER":125.9121,"MEAN_ANOMALY":234.3542,"EPHEMERIS_TYPE":0,"CLASSIFICATION_TYPE":"U","NORAD_CAT_ID":22219,"ELEMENT_SET_NO":999,"REV_AT_EPOCH":72559,"BSTAR":0.00019437,"MEAN_MOTION_DOT":3.24e-6,"MEAN_MOTION_DDOT":0},{"OBJECT_NAME":"SL-16 R/B","OBJECT_ID":"1992-076B","EPOCH":"2026-04-29T21:10:44.410944","MEAN_MOTION":14.16865292,"ECCENTRICITY":0.0012313,"INCLINATION":70.999,"RA_OF_ASC_NODE":80.5355,"ARG_OF_PERICENTER":6.8883,"MEAN_ANOMALY":60.4878,"EPHEMERIS_TYPE":0,"CLASSIFICATION_TYPE":"U","NORAD_CAT_ID":22220,"ELEMENT_SET_NO":999,"REV_AT_EPOCH":72908,"BSTAR":4.1429e-5,"MEAN_MOTION_DOT":3.5e-7,"MEAN_MOTION_DDOT":0},{"OBJECT_NAME":"COSMOS 2221","OBJECT_ID":"1992-080A","EPOCH":"2026-04-29T17:28:42.280896","MEAN_MOTION":14.96403966,"ECCENTRICITY":0.001469,"INCLINATION":82.5049,"RA_OF_ASC_NODE":230.1814,"ARG_OF_PERICENTER":26.9134,"MEAN_ANOMALY":333.2846,"EPHEMERIS_TYPE":0,"CLASSIFICATION_TYPE":"U","NORAD_CAT_ID":22236,"ELEMENT_SET_NO":999,"REV_AT_EPOCH":78842,"BSTAR":0.00017012,"MEAN_MOTION_DOT":1.957e-5,"MEAN_MOTION_DDOT":0},{"OBJECT_NAME":"SL-16 R/B","OBJECT_ID":"1992-093B","EPOCH":"2026-04-29T20:00:43.427808","MEAN_MOTION":14.15460233,"ECCENTRICITY":0.0006096,"INCLINATION":71.0217,"RA_OF_ASC_NODE":256.8968,"ARG_OF_PERICENTER":242.5332,"MEAN_ANOMALY":117.5172,"EPHEMERIS_TYPE":0,"CLASSIFICATION_TYPE":"U","NORAD_CAT_ID":22285,"ELEMENT_SET_NO":999,"REV_AT_EPOCH":72039,"BSTAR":0.00013541,"MEAN_MOTION_DOT":2.17e-6,"MEAN_MOTION_DDOT":0},{"OBJECT_NAME":"COSMOS 2228","OBJECT_ID":"1992-094A","EPOCH":"2026-04-29T20:15:11.367648","MEAN_MOTION":14.97425838,"ECCENTRICITY":0.0019243,"INCLINATION":82.5198,"RA_OF_ASC_NODE":188.3392,"ARG_OF_PERICENTER":127.4174,"MEAN_ANOMALY":232.8803,"EPHEMERIS_TYPE":0,"CLASSIFICATION_TYPE":"U","NORAD_CAT_ID":22286,"ELEMENT_SET_NO":999,"REV_AT_EPOCH":78371,"BSTAR":0.00015998,"MEAN_MOTION_DOT":1.894e-5,"MEAN_MOTION_DDOT":0},{"OBJECT_NAME":"SL-16 R/B","OBJECT_ID":"1993-016B","EPOCH":"2026-04-29T09:13:56.553312","MEAN_MOTION":14.15308064,"ECCENTRICITY":0.00124693,"INCLINATION":71.0037,"RA_OF_ASC_NODE":108.7083,"ARG_OF_PERICENTER":250.1033,"MEAN_ANOMALY":109.8747,"EPHEMERIS_TYPE":0,"CLASSIFICATION_TYPE":"U","NORAD_CAT_ID":22566,"ELEMENT_SET_NO":999,"REV_AT_EPOCH":70934,"BSTAR":-9.4177432e-5,"MEAN_MOTION_DOT":-2.31e-6,"MEAN_MOTION_DDOT":0},{"OBJECT_NAME":"COSMOS 2242","OBJECT_ID":"1993-024A","EPOCH":"2026-04-29T18:45:40.125024","MEAN_MOTION":14.96760169,"ECCENTRICITY":0.0017531,"INCLINATION":82.521,"RA_OF_ASC_NODE":217.8417,"ARG_OF_PERICENTER":130.7442,"MEAN_ANOMALY":229.5306,"EPHEMERIS_TYPE":0,"CLASSIFICATION_TYPE":"U","NORAD_CAT_ID":22626,"ELEMENT_SET_NO":999,"REV_AT_EPOCH":78803,"BSTAR":0.00014792,"MEAN_MOTION_DOT":1.722e-5,"MEAN_MOTION_DDOT":0}]
