SL-8 R/B                
1 21088U 91006B   26119.55565637  .00000195  00000+0  18064-3 0  9992
2 21088  82.9396 132.2163 0021005 251.5341 235.1422 13.77505651771076
OKEAN-3                 
1 21397U 91039A   26119.60972611  .00004021  00000+0  28032-3 0  9999
2 21397  82.5135 287.4842 0014602 152.4606 207.7398 15.05081605872699
COSMOS 2151             
1 21422U 91042A   26119.84136245  .00001943  00000+0  15279-3 0  9992
2 21422  82.4990  34.3279 0010724 243.9814 116.0306 15.00307988870865
SL-14 R/B               
1 21423U 91042B   26119.60385175  .00000360  00000+0  42380-4 0  9991
2 21423  82.4940 172.4548 0018529  75.5107 284.8161 14.81872566860611
ERS-1                   
1 21574U 91050A   26119.64814954  .00000339  00000+0  12298-3 0  9993
2 21574  98.7830 139.1546 0032851  52.5922 307.8247 14.39486032823069
ARIANE 40 R/B           
1 21610U 91050F   26119.85537061  .00000301  00000+0  10262-3 0  9996
2 21610  98.1915 170.1456 0001764 281.8766  78.2227 14.42927745826374
INTERCOSMOS 25          
1 21819U 91086A   26119.58392090  .00000934  00000+0  18032-3 0  9992
2 21819  82.5996 279.2236 1485655   7.2401 354.7735 12.12135150502856
SL-8 R/B                
1 21876U 92008B   26119.77907678  .00000056  00000+0  41611-4 0  9990
2 21876  82.9283 229.7745 0034315 354.2673 116.0123 13.75971075716441
SL-8 R/B                
1 21938U 92020B   26119.62536411 -.00000034  00000+0 -51518-4 0  9995
2 21938  82.9269 115.9297 0029628 153.0866 345.7214 13.75548100708130
USA 81                  
1 21949U 92023A   26119.86422032  .00000200  00000+0  66806-4 0  9998
2 21949  85.0039 101.8979 0001452 107.8517 252.2834 14.32383944102110
COSMOS 2219             
1 22219U 92076A   26119.73536831  .00000324  00000+0  19437-3 0  9990
2 22219  71.0602 271.3570 0016575 125.9121 234.3542 14.14099054725592
SL-16 R/B               
1 22220U 92076B   26119.88245846  .00000035  00000+0  41429-4 0  9997
2 22220  70.9990  80.5355 0012313   6.8883  60.4878 14.16865292729086
COSMOS 2221             
1 22236U 92080A   26119.72826714  .00001957  00000+0  17012-3 0  9995
2 22236  82.5049 230.1814 0014690  26.9134 333.2846 14.96403966788425
SL-16 R/B               
1 22285U 92093B   26119.83383597  .00000217  00000+0  13541-3 0  9993
2 22285  71.0217 256.8968 0006096 242.5332 117.5172 14.15460233720399
COSMOS 2228             
1 22286U 92094A   26119.84388157  .00001894  00000+0  15998-3 0  9993
2 22286  82.5198 188.3392 0019243 127.4174 232.8803 14.97425838783717
SL-16 R/B               
1 22566U 93016B   26119.38468233 -.00000231  00000+0 -94177-4 0  9995
2 22566  71.0037 108.7083 0012469 250.1033 109.8747 14.15308064709345
COSMOS 2242             
1 22626U 93024A   26119.78171441  .00001722  00000+0  14792-3 0  9995
2 22626  82.5210 217.8417 0017531 130.7442 229.5306 14.96760169788038
